[{"OBJECT_NAME":"JY1SAT (JO-97)","OBJECT_ID":"2018-099AX","EPOCH":"2026-03-09T16:28:19.890048","MEAN_MOTION":15.30302629,"ECCENTRICITY":0.00047232,"INCLINATION":97.4249,"RA_OF_ASC_NODE":131.3625,"ARG_OF_PERICENTER":256.6795,"MEAN_ANOMALY":103.3919,"EPHEMERIS_TYPE":0,"CLASSIFICATION_TYPE":"U","NORAD_CAT_ID":43803,"ELEMENT_SET_NO":999,"REV_AT_EPOCH":39839,"BSTAR":0.00060804308,"MEAN_MOTION_DOT":0.00017774,"MEAN_MOTION_DDOT":0},{"OBJECT_NAME":"STARLINK-35851","OBJECT_ID":"2025-254J","EPOCH":"2026-03-09T21:21:22.380768","MEAN_MOTION":15.3019816,"ECCENTRICITY":9.41e-5,"INCLINATION":53.157,"RA_OF_ASC_NODE":231.715,"ARG_OF_PERICENTER":108.6676,"MEAN_ANOMALY":251.4427,"EPHEMERIS_TYPE":0,"CLASSIFICATION_TYPE":"U","NORAD_CAT_ID":66356,"ELEMENT_SET_NO":999,"REV_AT_EPOCH":1900,"BSTAR":0.0009115398,"MEAN_MOTION_DOT":0.00026734,"MEAN_MOTION_DDOT":0}]
